GAOFEN-11 01            
1 43585U 18063A   26186.63568654  .00010503  00000+0  15326-3 0  9997
2 43585  97.1275 253.4684 0002218 247.0160 113.0861 15.55852104443213
ICESAT-2                
1 43613U 18070A   26186.35830302  .00014636  00000+0  53178-3 0  9996
2 43613  92.0089 295.8894 0006061  85.7414 274.4528 15.28226862435235
HYSIS                   
1 43719U 18096A   26186.61795943  .00002259  00000+0  31537-3 0  9994
2 43719  97.9827 253.2211 0001886  88.3282 271.8145 14.78659668410146
KAZSTSAT                
1 43783U 18099AB  26186.04331779  .00002286  00000+0  18854-3 0  9995
2 43783  97.4307 217.1642 0008125  18.2176 341.9338 14.99934324413985
SAUDISAT 5A             
1 43831U 18102A   26186.63054578  .00006659  00000+0  24417-3 0  9998
2 43831  97.3053 247.8573 0011087  73.3327 286.9129 15.28251380418494
SAUDISAT 5B             
1 43833U 18102C   26186.64634846  .00006465  00000+0  23530-3 0  9993
2 43833  97.3161 250.9759 0011840  74.9162 285.3387 15.28498249418618
GAOFEN-10R              
1 44622U 19066A   26186.64064066  .00001288  00000+0  16500-3 0  9998
2 44622  98.0505 140.3546 0007176  77.6549 282.5467 14.83042288365119
CARTOSAT-3              
1 44804U 19081A   26186.59914683  .00008072  00000+0  38485-3 0  9994
2 44804  97.4286 248.1700 0013439  90.4786 269.7989 15.19281785366264
GAOFEN-12 01            
1 44819U 19082A   26186.59871359  .00000420  00000+0  61495-4 0  9990
2 44819  97.8104 192.4923 0001475  53.7141 306.4208 14.80474120356812
CSG-1                   
1 44873U 19092A   26186.61674072  .00000340  00000+0  49274-4 0  9999
2 44873  97.8893   9.9526 0001488  90.8141 269.3242 14.82145675354202
NEMO-HD                 
1 46277U 20061F   26186.59117066  .00012773  00000+0  27273-3 0  9996
2 46277  97.1905 248.3615 0001303  75.3567 284.7827 15.44990897324821
SENTINEL-6A             
1 46984U 20086A   26186.12102496 -.00000034  00000+0  11644-3 0  9991
2 46984  66.0415  97.8050 0007833 270.0452  89.9666 12.80930091262620
CAS500-1                
1 47932U 21022A   26186.62554391  .00007164  00000+0  33375-3 0  9991
2 47932  97.3874  81.5037 0003864 207.4496 152.6536 15.20195501293564
GAOFEN-12 02            
1 48079U 21026A   26186.61175294  .00000398  00000+0  59203-4 0  9999
2 48079  97.9928 184.7174 0005177 158.3780 201.7652 14.80310907284480
PLEIADES NEO 3          
1 48268U 21034A   26186.62198091  .00000214  00000+0  33853-4 0  9999
2 48268  97.8933 261.1234 0001331  91.7672 268.3694 14.81673458280384
PLEIADES NEO 4          
1 49070U 21073E   26186.65573703  .00000324  00000+0  47801-4 0  9994
2 49070  97.8940 261.1531 0001300  99.0970 261.0390 14.81675740264103
LANDSAT 9               
1 49260U 21088A   26186.18804202  .00000486  00000+0  11792-3 0  9998
2 49260  98.2273 256.1471 0001170  88.5749 271.5583 14.57110712253628
CSG-2                   
1 51444U 22008A   26186.65047216  .00000196  00000+0  31151-4 0  9994
2 51444  97.8889   9.9799 0001529  84.6748 275.4640 14.82156516239322
GAOFEN-12 03            
1 52912U 22069A   26186.64487378  .00001139  00000+0  15706-3 0  9993
2 52912  97.8252  74.0477 0002439  83.9758 276.1732 14.80064934217345
SWOT                    
1 54754U 22173A   26186.49490157  .00000050  00000+0  35365-4 0  9992
2 54754  77.6102  10.5939 0000308  79.6120 280.5066 14.00171772181718
GAOFEN-12 04            
1 57654U 23123A   26186.59502594  .00001082  00000+0  15067-3 0  9992
2 57654  97.9110 104.3403 0003885  69.7085 290.4544 14.79762603155352
PARS 1                  
1 59065U 24039Q   26186.63278799  .00012895  00000+0  26436-3 0  9995
2 59065  97.4836 168.1389 0010863  57.5192 302.7106 15.46136025131497
RESURS-P 4              
1 59371U 24061A   26186.61491480  .00003469  00000+0  11391-3 0  9993
2 59371  97.2758 134.1940 0003168 103.7336 256.4259 15.32240301126584
LEGION 1                
1 59625U 24081A   26186.36967820  .00006303  00000+0  32396-3 0  9993
2 59625  97.5007 264.0336 0007965 310.4450  49.6087 15.16799171120290
LEGION 2                
1 59626U 24081B   26186.33394782  .00005535  00000+0  28500-3 0  9990
2 59626  97.5008 264.0954 0009825 272.6886  87.3222 15.16777676120293
ALOS-4 (DAICHI-4)       
1 60182U 24123A   26186.62229325  .00001800  00000+0  24777-3 0  9991
2 60182  97.9217 283.5338 0001606  97.4497 262.6897 14.79475898108606
LEGION 3                
1 60452U 24146A   26186.31816958  .00005718  00000+0  30915-3 0  9999
2 60452  45.0021 293.3280 0008893 282.8359  77.1525 15.15613010104772
LEGION 4                
1 60453U 24146B   26186.58327968  .00005592  00000+0  29767-3 0  9990
2 60453  45.0021  23.7952 0011631  51.9024 308.2902 15.16188757103662
SENTINEL-2C             
1 60989U 24157A   26186.21449580  .00000181  00000+0  85755-4 0  9990
2 60989  98.5686 260.7412 0000935  94.1003 266.0286 14.30813996 95561
IONOSFERA-M 1           
1 61735U 24199A   26186.40818663  .00000075  00000+0  52969-4 0  9992
2 61735  98.7149  59.3861 0002217  86.1314 274.0118 14.22757891130293
